SPAWAR-CAL-R            
1 43776U 18099U   26067.65115975  .00003570  00000+0  25336-3 0  9990
2 43776  97.4524 111.5817 0019701 348.9052  11.1737 15.05212097396878
STARLINK-4618           
1 53735U 22107AM  26068.80618673 -.00003883  00000+0 -22594-3 0  9994
2 53735  53.2167 263.4124 0001058  70.1068 290.0038 15.08855213194461
